OBJECT_NAME,OBJECT_ID,EPOCH,MEAN_MOTION,ECCENTRICITY,INCLINATION,RA_OF_ASC_NODE,ARG_OF_PERICENTER,MEAN_ANOMALY,EPHEMERIS_TYPE,CLASSIFICATION_TYPE,NORAD_CAT_ID,ELEMENT_SET_NO,REV_AT_EPOCH,BSTAR,MEAN_MOTION_DOT,MEAN_MOTION_DDOT
GAOFEN-11 01,2018-063A,2026-07-05T15:15:23.317056,15.55852104,.00022183,97.1275,253.4684,247.0160,113.0861,0,U,43585,999,44321,.15325864E-3,.10503E-3,0
ICESAT-2,2018-070A,2026-07-05T08:35:57.380064,15.28226862,.0006062,92.0089,295.8894,85.7414,274.4528,0,U,43613,999,43523,.53178E-3,.14636E-3,0
HYSIS,2018-096A,2026-07-05T14:49:51.694752,14.78659668,.00018863,97.9827,253.2211,88.3282,271.8145,0,U,43719,999,41014,.31537315E-3,.2259E-4,0
KAZSTSAT,2018-099AB,2026-07-05T01:02:22.657056,14.99934324,.0008126,97.4307,217.1642,18.2176,341.9338,0,U,43783,999,41398,.18854E-3,.2286E-4,0
SAUDISAT 5A,2018-102A,2026-07-05T15:07:59.155392,15.28251380,.00110875,97.3053,247.8573,73.3327,286.9129,0,U,43831,999,41849,.24417371E-3,.6659E-4,0
SAUDISAT 5B,2018-102C,2026-07-05T15:30:44.506944,15.28498249,.00118408,97.3161,250.9759,74.9162,285.3387,0,U,43833,999,41861,.23529954E-3,.6465E-4,0
GAOFEN-10R,2019-066A,2026-07-05T15:22:31.353024,14.83042288,.00071762,98.0505,140.3546,77.6549,282.5467,0,U,44622,999,36511,.16499768E-3,.1288E-4,0
CARTOSAT-3,2019-081A,2026-07-05T14:22:46.286112,15.19281785,.00134393,97.4286,248.1700,90.4786,269.7989,0,U,44804,999,36626,.38485113E-3,.8072E-4,0
GAOFEN-12 01,2019-082A,2026-07-05T14:22:08.854176,14.80474120,.00014758,97.8104,192.4923,53.7141,306.4208,0,U,44819,999,35681,.61494764E-4,.42E-5,0
CSG-1,2019-092A,2026-07-05T14:48:06.398208,14.82145675,.0001488,97.8893,9.9526,90.8141,269.3242,0,U,44873,999,35420,.49274E-4,.34E-5,0
NEMO-HD,2020-061F,2026-07-05T14:11:17.145024,15.44990897,.00013038,97.1905,248.3615,75.3567,284.7827,0,U,46277,999,32482,.2727306E-3,.12773E-3,0
SENTINEL-6A,2020-086A,2026-07-05T02:54:16.555680,12.80930091,.0007834,66.0415,97.8050,270.0452,89.9666,0,U,46984,999,26262,.11644E-3,-.34E-6,0
CAS500-1,2021-022A,2026-07-05T15:00:46.993824,15.20195501,.00038648,97.3874,81.5037,207.4496,152.6536,0,U,47932,999,29356,.33374796E-3,.7164E-4,0
GAOFEN-12 02,2021-026A,2026-07-05T14:40:55.454016,14.80310907,.00051778,97.9928,184.7174,158.3780,201.7652,0,U,48079,999,28448,.59203487E-4,.398E-5,0
PLEIADES NEO 3,2021-034A,2026-07-05T14:55:39.150624,14.81673458,.00013315,97.8933,261.1234,91.7672,268.3694,0,U,48268,999,28038,.33853387E-4,.214E-5,0
PLEIADES NEO 4,2021-073E,2026-07-05T15:44:15.679392,14.81675740,.00013,97.8940,261.1531,99.0970,261.0390,0,U,49070,999,26410,.47801E-4,.324E-5,0
LANDSAT 9,2021-088A,2026-07-05T04:30:46.829664,14.57110712,.000117,98.2273,256.1471,88.5749,271.5583,0,U,49260,999,25362,.11792E-3,.486E-5,0
CSG-2,2022-008A,2026-07-05T15:36:40.794624,14.82156516,.00015299,97.8889,9.9799,84.6748,275.4640,0,U,51444,999,23932,.31151133E-4,.196E-5,0
GAOFEN-12 03,2022-069A,2026-07-05T15:28:37.094592,14.80064934,.00024394,97.8252,74.0477,83.9758,276.1732,0,U,52912,999,21734,.15706193E-3,.1139E-4,0
SWOT,2022-173A,2026-07-05T11:52:39.495648,14.00171772,.00003081,77.6102,10.5939,79.6120,280.5066,0,U,54754,999,18171,.35364781E-4,.5E-6,0
GAOFEN-12 04,2023-123A,2026-07-05T14:16:50.241216,14.79762603,.00038852,97.9110,104.3403,69.7085,290.4544,0,U,57654,999,15535,.15066831E-3,.1082E-4,0
PARS 1,2024-039Q,2026-07-05T15:11:12.882336,15.46136025,.00108639,97.4836,168.1389,57.5192,302.7106,0,U,59065,999,13149,.26435836E-3,.12895E-3,0
RESURS-P 4,2024-061A,2026-07-05T14:45:28.638720,15.32240301,.00031685,97.2758,134.1940,103.7336,256.4259,0,U,59371,999,12658,.11390981E-3,.3469E-4,0
LEGION 1,2024-081A,2026-07-05T08:52:20.196480,15.16799171,.00079658,97.5007,264.0336,310.4450,49.6087,0,U,59625,999,12029,.32396011E-3,.6303E-4,0
LEGION 2,2024-081B,2026-07-05T08:00:53.091648,15.16777676,.00098258,97.5008,264.0954,272.6886,87.3222,0,U,59626,999,12029,.28499777E-3,.5535E-4,0
ALOS-4 (DAICHI-4),2024-123A,2026-07-05T14:56:06.136800,14.79475898,.00016067,97.9217,283.5338,97.4497,262.6897,0,U,60182,999,10860,.24776927E-3,.18E-4,0
LEGION 3,2024-146A,2026-07-05T07:38:09.851712,15.15613010,.00088933,45.0021,293.3280,282.8359,77.1525,0,U,60452,999,10477,.30914996E-3,.5718E-4,0
LEGION 4,2024-146B,2026-07-05T13:59:55.364352,15.16188757,.00116317,45.0021,23.7952,51.9024,308.2902,0,U,60453,999,10366,.29766663E-3,.5592E-4,0
SENTINEL-2C,2024-157A,2026-07-05T05:08:52.437120,14.30813996,.00009359,98.5686,260.7412,94.1003,266.0286,0,U,60989,999,9556,.85755342E-4,.181E-5,0
IONOSFERA-M 1,2024-199A,2026-07-05T09:47:47.324832,14.22757891,.00022176,98.7149,59.3861,86.1314,274.0118,0,U,61735,999,13029,.52969228E-4,.75E-6,0
